STARS-AO
1 43679U 18084J   25299.05915029  .00008484  00000-0  48116-3 0  9995
2 43679  98.0684 133.8701 0001148 224.3613 135.7525 15.13246325382018
KAIDUN-1
1 41915U 17002C   25297.84458159  .00773240  29516-3  12581-2 0  9997
2 41915  97.1250 330.3665 0004232 191.2611 168.8576 16.03407281487567
CAS-4B (ZHUHAI-1 02)
1 42759U 17034B   25286.97241530  .03437790  89859-5  10544-2 0  9999
2 42759  42.9888 273.3261 0008257 129.3938 230.7682 16.25684504462550
CAS-4A (ZHUHAI-1 01)
1 42761U 17034D   25281.34159269  .04203186  90411-5  12507-2 0  9993
2 42761  42.9927 303.5081 0008135  81.2710 278.9099 16.26032227461692
EAGLESAT-1
1 43018U 17073F   25299.17242648  .00428976  00000-0  19161-2 0  9991
2 43018  97.5101 200.4822 0028513 305.3088  54.5514 15.82570138432064
LUOJIA-1 01
1 43485U 18048B   25299.16030478  .00003683  00000-0  42765-3 0  9998
2 43485  97.8327  16.0451 0009687 163.2094 196.9444 14.85961028399444
DIWATA-2B (PO-101)
1 43678U 18084H   25299.19958823  .00003783  00000-0  31656-3 0  9996
2 43678  98.1099 120.7474 0007769 167.3698 192.7719 14.99098466381149
ESHAIL-2
1 43700U 18090A   25299.12253725  .00000157  00000-0  00000+0 0  9998
2 43700   0.0108 176.2549 0001945  77.2531 211.1675  1.00273897 25336
K2SAT
1 43761U 18099D   25299.06627796  .00003883  00000-0  27662-3 0  9996
2 43761  97.4531 343.2432 0013281  68.9206 291.3439 15.05096117376876
AISTECHSAT-2
1 43768U 18099L   25299.12068223  .00007218  00000-0  42204-3 0  9999
2 43768  97.4655 347.3031 0006008  44.6541 315.5173 15.12154459376867
SNUSAT-2
1 43782U 18099AA  25299.12072285  .00009676  00000-0  49133-3 0  9996
2 43782  97.4419 351.3674 0012240  40.3765 319.8374 15.17038799377487
ITASAT-1
1 43786U 18099AE  25299.09394683  .00009820  00000-0  52733-3 0  9996
2 43786  97.4392 350.4165 0015227  88.2781 272.0195 15.15021297377410
IRVINE02
1 43789U 18099AH  25299.15597500  .00079751  00000-0  13412-2 0  9999
2 43789  97.4473  10.3602 0006091 355.5932   4.5265 15.51448307378375
EAGLET-1
1 43790U 18099AJ  25299.14929698  .00006276  00000-0  38472-3 0  9993
2 43790  97.4594 349.9152 0013222  76.1403 284.1296 15.10430637376971
ESEO
1 43792U 18099AL  25299.09117829  .00001953  00000-0  14844-3 0  9998
2 43792  97.4292 341.2111 0013646  55.2271 305.0237 15.03200410376625
HIBER-2
1 43774U 18099S   25299.15184922  .00089320  00000-0  13977-2 0  9992
2 43774  97.4711  12.1656 0003346 337.1361  22.9742 15.53439795378563
MINXSS-2
1 43758U 18099A   25299.16694177  .00024314  00000-0  80316-3 0  9997
2 43758  97.4855   5.9888 0010660  33.0685 327.1220 15.31327614378135
FOX-1CLIFF (AO-95)
1 43770U 18099N   25299.09889564  .00014086  00000-0  64980-3 0  9993
2 43770  97.4744 355.7739 0011436  91.2488 269.0058 15.20292694377573
CORVUS-BC4
1 43767U 18099K   25299.07260514  .00006835  00000-0  42591-3 0  9992
2 43767  97.4423 343.8389 0010363  89.3481 270.8936 15.09826924377044
CZ-4B R/B
1 43656U 18081B   25299.15387185  .00000218  00000-0  82540-4 0  9991
2 43656  99.3757 193.3387 0204395 220.6068 137.9716 14.31729541365811
COSMOS 2504 [i]
1 40555U 15020D   25299.16483187  .00001150  00000-0  42212-3 0  9993
2 40555  82.5188  52.1461 0608747 190.2563 168.5696 13.61169414518359
MERIDIAN-4
1 37398U 11018A   25296.56513328  .00001273  00000-0  21350-2 0  9994
2 37398  62.1247 112.8187 7432018 262.4854  16.0839  2.00642373106010
MERIDIAN-6
1 38995U 12063A   25298.28077462 -.00000660  00000-0  00000-0 0  9991
2 38995  64.5622  28.2685 7286745 230.1950  39.2981  2.00619315 94799
MERIDIAN-7
1 40296U 14069A   25298.88040844  .00000024  00000-0  00000+0 0  9998
2 40296  63.4693 238.9880 6754965 271.9219  18.2572  2.00615115 80537
METOP-C
1 43689U 18087A   25299.16896626  .00000180  00000-0  10226-3 0  9998
2 43689  98.6995 357.6510 0002129 114.5983 245.5416 14.21485299361585
FENGYUN-3B
1 37214U 10059A   25299.22360255  .00000120  00000-0  85566-4 0  9991
2 37214  98.9982 338.8516 0022945 128.2929 311.4783 14.14770132774345
FENGYUN-3C
1 39260U 13052A   25299.17900145  .00000155  00000-0  10010-3 0  9991
2 39260  98.4711 279.1919 0014344 341.6269  18.4386 14.15673593625453
EWS-G1 (GOES-13)
1 29155U 06018A   25299.16306727  .00000033  00000-0  00000+0 0  9991
2 29155   3.9203  79.2598 0059256 268.0650 325.8843  0.98786765 40930
FENGYUN-2H
1 43491U 18050A   25299.13302397 -.00000115  00000-0  00000+0 0  9997
2 43491   2.4231  81.8563 0002349 142.6776 297.2058  1.00275937 27092
FENGYUN-2G
1 40367U 14090A   25298.95650162 -.00000285  00000-0  00000+0 0  9999
2 40367   5.0436  75.6525 0003724 182.3093 220.2296  1.00262555 39654
INMARSAT 4-F1
1 28628U 05009A   25299.18184780  .00000046  00000-0  00000+0 0  9993
2 28628   4.8573  42.4757 0003546 186.1701  49.7586  1.00272464 75328
INMARSAT 4-F2
1 28899U 05044A   25298.71765328 -.00000247  00000-0  00000-0 0  9998
2 28899   4.7888  43.6252 0003002 185.6686 206.9378  1.00270216 73172
INMARSAT 4-F3
1 33278U 08039A   25298.88385610 -.00000127  00000-0  00000+0 0  9998
2 33278   4.0964  30.5526 0003004 195.5825  28.5904  1.00270901 44197
INMARSAT 4A-F4 (ALPHASAT)
1 39215U 13038A   25299.19419958  .00000146  00000-0  00000+0 0  9998
2 39215   2.9591   3.2737 0003780 216.2037 270.1514  1.00272287 41676
ASTROCAST
1 43798U 18099AS  25299.16266168  .00026658  00000-0  80703-3 0  9999
2 43798  97.4682   7.7539 0006239 351.8730   8.2410 15.34135933378377
JY1SAT (JO-97)
1 43803U 18099AX  25299.13703897  .00017494  00000-0  70790-3 0  9991
2 43803  97.4488 357.1657 0007266  31.4432 328.7239 15.24742171377850
SUOMI-100
1 43804U 18099AY  25299.13557433  .00013652  00000-0  60609-3 0  9995
2 43804  97.4549 356.0098 0012004  31.6463 328.5492 15.21611153377747
GEO-KOMPSAT-2A
1 43823U 18100A   25298.92874964 -.00000331  00000-0  00000+0 0  9992
2 43823   0.0568  68.1708 0001371  58.8128  10.2187  1.00272782 25280
UWE-4
1 43880U 18111E   25298.71607867  .00030363  00000-0  10026-2 0  9999
2 43880  97.5824 214.0373 0013629  84.1475 276.1319 15.31260521374728
D-STAR ONE SPARROW
1 43881U 18111F   25298.74907351  .00046190  00000-0  11898-2 0  9997
2 43881  97.6057 220.1960 0009422  98.8748 261.3564 15.39031521374978
METEOR M2-2
1 44387U 19038A   25299.17716287  .00000246  00000-0  12632-3 0  9992
2 44387  98.8924 278.3353 0001294  22.8116 337.3120 14.24260855327980
MOMENTUS-X1
1 44408U 19038Y   25299.03526867  .00028637  00000-0  51586-3 0  9999
2 44408  97.7119 320.7976 0012225 143.0752 217.1342 15.49684956350100
MERIDIAN-8
1 44453U 19046A   25294.46028111  .00000137  00000-0  00000-0 0  9996
2 44453  62.9252  80.9188 6984812 274.1552  15.6921  2.00620519 45554
TAURUS-1
1 44530U 19059C   25299.14588359  .00010051  00000-0  17595-2 0  9996
2 44530  98.6222  85.4265 0008697 323.6704  36.3908 14.68014350324259
GAOFEN 12-01
1 44819U 19082A   25299.16631713  .00000715  00000-0  99940-4 0  9999
2 44819  97.8146 306.6922 0003847  62.2193 297.9409 14.80573653319461
DUCHIFAT-3
1 44854U 19089C   25299.05783578  .00189781  00000-0  15333-2 0  9993
2 44854  36.9323 184.3857 0009962 295.7928  64.1807 15.69263142324573
CAS-6 (TO-108)
1 44881U 19093C   25299.16192646  .00001503  00000-0  17804-3 0  9991
2 44881  97.7807  11.8501 0014732 132.7647 227.4811 14.85937822316653
ELEKTRO-L3
1 44903U 19095A   25299.07614046 -.00000085  00000-0  00000+0 0  9992
2 44903   0.0559  52.6726 0001798 205.0969 240.4213  1.00272203 21360
DOSAAF-85 (RS-44)
1 44909U 19096E   25299.01151921  .00000023  00000-0  51135-4 0  9992
2 44909  82.5185 135.3288 0217069 332.1566  26.8050 12.79744939272397
MERIDIAN-9
1 45254U 20015A   25299.17800190 -.00000036  00000-0  00000+0 0  9990
2 45254  65.4101 344.2862 6923880 281.7232  13.6938  2.00614697 41593
ION-MK01
1 46274U 20061C   25299.15376145  .00052217  00000-0  61817-3 0  9994
2 46274  97.2249   8.4797 0002343  91.3191 268.8336 15.61103425286515
UPMSAT-2
1 46276U 20061E   25284.11510829  .12115553  24945-5  13983-3 0  9991
2 46276  97.2106   5.1352 0012001 257.8540 102.1421 16.49625583285008
DEKART
1 46493U 20068H   25299.18420516  .00014922  00000-0  50767-3 0  9992
2 46493  97.8713 287.9474 0012155  43.0145 317.2043 15.30473263279894
NORBY
1 46494U 20068J   25299.07798345  .00026039  00000-0  73229-3 0  9999
2 46494  97.8670 291.4986 0010028  36.3584 323.8338 15.36434218280114
SALSAT (TUBSAT 22)
1 46495U 20068K   25298.91757978  .00011517  00000-0  46157-3 0  9994
2 46495  97.8760 283.6618 0012449  49.4623 310.7695 15.25134421279590
NETSAT-4
1 46504U 20068U   25299.19619432  .00018156  00000-0  54229-3 0  9993
2 46504  97.8582 285.3294 0009442  78.4992 281.7310 15.34626178279778
NETSAT-3
1 46505U 20068V   25298.93231830  .00019884  00000-0  62206-3 0  9990
2 46505  97.8601 283.6672 0009119  89.2954 270.9332 15.33137252279673
NETSAT-1
1 46506U 20068W   25299.19389509  .00014659  00000-0  54962-3 0  9992
2 46506  97.8642 280.6726 0008719 101.7549 258.4667 15.27327221279493
NETSAT-2
1 46507U 20068X   25299.20479517  .00020114  00000-0  59816-3 0  9990
2 46507  97.8593 284.7846 0007886  99.5725 260.6408 15.34754331279718
ARKTIKA-M1
1 47719U 21016A   25273.30456647 -.00000067  00000-0  00000-0 0  9996
2 47719  63.1648  93.9278 7163272 268.8764  16.0765  2.00626972 33572
SIMBA
1 47941U 21022K   25299.18315891  .00071334  00000-0  96199-3 0  9990
2 47941  97.4062 207.6708 0009333 139.8352 220.3595 15.57526988254669
UNISAT-7
1 47945U 21022P   25299.15680147  .00014611  00000-0  46314-3 0  9999
2 47945  97.4039 197.6267 0010043 179.7075 180.4174 15.32766953253917
CSS (TIANHE-1)
1 48274U 21035A   25299.07169961  .00035835  00000-0  42083-3 0  9996
2 48274  41.4668 306.2824 0011094 284.0049  75.9556 15.60669666256587
FENGYUN-4B
1 48808U 21047A   25298.42454514 -.00000318  00000-0  00000-0 0  9990
2 48808   0.1518 281.3726 0010601  77.1056 293.0775  1.00272067 16216
TUBIN
1 48900U 21059X   25299.16447962  .00140455  00000-0  74345-3 0  9999
2 48900  97.6718 121.3089 0001728  72.8559 287.2897 15.80177716241754
